start=new Date('2023-05-07T00:00:00.000Z').valueOf();
sats=[{"SITE":"AFETR","PERIOD":"95.593","CLASSIFICATION_TYPE":"U","EPHEMERIS_TYPE":"0","OBJECT_TYPE":"PAYLOAD","OBJECT_NAME":"STARLINK-2712","MEAN_MOTION":"15.06393804","MEAN_ELEMENT_THEORY":"SGP4","EPOCH":"2023-05-06T06:49:10.413984","MEAN_ANOMALY":"277.9895","OBJECT_ID":"2021-044AN","SEMIMAJOR_AXIS":"6925.368","LAUNCH_DATE":"2021-05-26","BSTAR":"0.00019787000000","DECAY_DATE":null,"RA_OF_ASC_NODE":"93.1863","RCS_SIZE":"LARGE","APOAPSIS":"548.316","ARG_OF_PERICENTER":"82.1272","PERIAPSIS":"546.149","CENTER_NAME":"EARTH","TLE_LINE2":"2 48674  53.0534  93.1863 0001565  82.1272 277.9895 15.06393804107330","REF_FRAME":"TEME","REV_AT_EPOCH":"10733","TLE_LINE1":"1 48674U 21044AN  23126.28414831  .00002666  00000-0  19787-3 0  9990","TIME_SYSTEM":"UTC","FILE":"3902298","MEAN_MOTION_DDOT":"0.0000000000000","MEAN_MOTION_DOT":"0.00002666","NORAD_CAT_ID":"48674","ECCENTRICITY":"0.00015650","INCLINATION":"53.0534","ELEMENT_SET_NO":"999","GP_ID":"231351396","COUNTRY_CODE":"US"},{"MEAN_MOTION_DOT":"0.00000570","ECCENTRICITY":"0.00014590","NORAD_CAT_ID":"48675","INCLINATION":"53.0532","GP_ID":"231349651","COUNTRY_CODE":"US","ELEMENT_SET_NO":"999","CENTER_NAME":"EARTH","TLE_LINE2":"2 48675  53.0532  93.2091 0001459  96.4555 263.6600 15.06384162107330","ARG_OF_PERICENTER":"96.4555","PERIAPSIS":"546.252","FILE":"3902298","MEAN_MOTION_DDOT":"0.0000000000000","REF_FRAME":"TEME","REV_AT_EPOCH":"10733","TLE_LINE1":"1 48675U 21044AP  23126.28140915  .00000570  00000-0  57210-4 0  9996","TIME_SYSTEM":"UTC","SEMIMAJOR_AXIS":"6925.397","LAUNCH_DATE":"2021-05-26","BSTAR":"0.00005721000000","MEAN_ANOMALY":"263.6600","OBJECT_ID":"2021-044AP","DECAY_DATE":null,"RA_OF_ASC_NODE":"93.2091","RCS_SIZE":"MEDIUM","APOAPSIS":"548.273","PERIOD":"95.593","SITE":"AFETR","MEAN_ELEMENT_THEORY":"SGP4","MEAN_MOTION":"15.06384162","OBJECT_NAME":"STARLINK-2737","EPOCH":"2023-05-06T06:45:13.750560","CLASSIFICATION_TYPE":"U","EPHEMERIS_TYPE":"0","OBJECT_TYPE":"PAYLOAD"},{"GP_ID":"231349901","COUNTRY_CODE":"US","ELEMENT_SET_NO":"999","MEAN_MOTION_DOT":"0.00001957","ECCENTRICITY":"0.00016660","NORAD_CAT_ID":"48676","INCLINATION":"53.0527","FILE":"3902298","MEAN_MOTION_DDOT":"0.0000000000000","REF_FRAME":"TEME","REV_AT_EPOCH":"10733","TLE_LINE1":"1 48676U 21044AQ  23126.27771724  .00001957  00000-0  15027-3 0  9993","TIME_SYSTEM":"UTC","TLE_LINE2":"2 48676  53.0527  93.2265 0001666  95.7027 264.4152 15.06387260107337","CENTER_NAME":"EARTH","PERIAPSIS":"546.099","ARG_OF_PERICENTER":"95.7027","DECAY_DATE":null,"RA_OF_ASC_NODE":"93.2265","RCS_SIZE":"LARGE","APOAPSIS":"548.406","SEMIMAJOR_AXIS":"6925.388","LAUNCH_DATE":"2021-05-26","BSTAR":"0.00015027000000","MEAN_ANOMALY":"264.4152","OBJECT_ID":"2021-044AQ","OBJECT_NAME":"STARLINK-2746","MEAN_ELEMENT_THEORY":"SGP4","MEAN_MOTION":"15.06387260","EPOCH":"2023-05-06T06:39:54.769536","CLASSIFICATION_TYPE":"U","EPHEMERIS_TYPE":"0","OBJECT_TYPE":"PAYLOAD","SITE":"AFETR","PERIOD":"95.593"},{"GP_ID":"231350653","COUNTRY_CODE":"US","ELEMENT_SET_NO":"999","MEAN_MOTION_DOT":"-0.00000129","INCLINATION":"53.0525","ECCENTRICITY":"0.00013720","NORAD_CAT_ID":"48677","FILE":"3902298","MEAN_MOTION_DDOT":"0.0000000000000","REV_AT_EPOCH":"10733","REF_FRAME":"TEME","TIME_SYSTEM":"UTC","TLE_LINE1":"1 48677U 21044AR  23126.27308462 -.00000129  00000-0  10248-4 0  9991","CENTER_NAME":"EARTH","TLE_LINE2":"2 48677  53.0525  93.2381 0001372  95.8027 264.3118 15.06391986107331","ARG_OF_PERICENTER":"95.8027","PERIAPSIS":"546.288","DECAY_DATE":null,"APOAPSIS":"548.188","RCS_SIZE":"LARGE","RA_OF_ASC_NODE":"93.2381","SEMIMAJOR_AXIS":"6925.373","LAUNCH_DATE":"2021-05-26","BSTAR":"0.00001024800000","MEAN_ANOMALY":"264.3118","OBJECT_ID":"2021-044AR","EPOCH":"2023-05-06T06:33:14.511168","MEAN_ELEMENT_THEORY":"SGP4","MEAN_MOTION":"15.06391986","OBJECT_NAME":"STARLINK-2719","CLASSIFICATION_TYPE":"U","OBJECT_TYPE":"PAYLOAD","EPHEMERIS_TYPE":"0","SITE":"AFETR","PERIOD":"95.593"},{"ELEMENT_SET_NO":"999","COUNTRY_CODE":"US","GP_ID":"231350896","ECCENTRICITY":"0.00014190","NORAD_CAT_ID":"48678","INCLINATION":"53.0538","MEAN_MOTION_DOT":"0.00000646","TLE_LINE1":"1 48678U 21044AS  23126.33669049  .00000646  00000-0  62298-4 0  9995","TIME_SYSTEM":"UTC","REF_FRAME":"TEME","REV_AT_EPOCH":"10734","MEAN_MOTION_DDOT":"0.0000000000000","FILE":"3902298","PERIAPSIS":"546.255","ARG_OF_PERICENTER":"90.4650","TLE_LINE2":"2 48678  53.0538  92.9595 0001419  90.4650 269.6502 15.06392277107344","CENTER_NAME":"EARTH","RCS_SIZE":"LARGE","RA_OF_ASC_NODE":"92.9595","APOAPSIS":"548.220","DECAY_DATE":null,"OBJECT_ID":"2021-044AS","MEAN_ANOMALY":"269.6502","BSTAR":"0.00006229800000","LAUNCH_DATE":"2021-05-26","SEMIMAJOR_AXIS":"6925.372","EPHEMERIS_TYPE":"0","OBJECT_TYPE":"PAYLOAD","CLASSIFICATION_TYPE":"U","OBJECT_NAME":"STARLINK-2615","MEAN_MOTION":"15.06392277","MEAN_ELEMENT_THEORY":"SGP4","EPOCH":"2023-05-06T08:04:50.058336","SITE":"AFETR","PERIOD":"95.593"},{"PERIAPSIS":"546.425","ARG_OF_PERICENTER":"95.9125","TLE_LINE2":"2 48679  53.0536  92.9778 0001141  95.9125 264.1994 15.06399463107344","CENTER_NAME":"EARTH","TLE_LINE1":"1 48679U 21044AT  23126.33302356  .00002393  00000-0  17949-3 0  9994","TIME_SYSTEM":"UTC","REF_FRAME":"TEME","REV_AT_EPOCH":"10734","MEAN_MOTION_DDOT":"0.0000000000000","FILE":"3902298","NORAD_CAT_ID":"48679","ECCENTRICITY":"0.00011410","INCLINATION":"53.0536","MEAN_MOTION_DOT":"0.00002393","ELEMENT_SET_NO":"999","COUNTRY_CODE":"US","GP_ID":"231350152","PERIOD":"95.592","SITE":"AFETR","EPHEMERIS_TYPE":"0","OBJECT_TYPE":"PAYLOAD","CLASSIFICATION_TYPE":"U","MEAN_ELEMENT_THEORY":"SGP4","OBJECT_NAME":"STARLINK-2648","MEAN_MOTION":"15.06399463","EPOCH":"2023-05-06T07:59:33.235584","OBJECT_ID":"2021-044AT","MEAN_ANOMALY":"264.1994","BSTAR":"0.00017949000000","SEMIMAJOR_AXIS":"6925.350","LAUNCH_DATE":"2021-05-26","RA_OF_ASC_NODE":"92.9778","RCS_SIZE":"LARGE","APOAPSIS":"548.005","DECAY_DATE":null},{"ELEMENT_SET_NO":"999","GP_ID":"231350402","COUNTRY_CODE":"US","MEAN_MOTION_DOT":"0.00000546","NORAD_CAT_ID":"48680","ECCENTRICITY":"0.00012440","INCLINATION":"53.0531","REF_FRAME":"TEME","REV_AT_EPOCH":"10734","TLE_LINE1":"1 48680U 21044AU  23126.32932558  .00000546  00000-0  55563-4 0  9991","TIME_SYSTEM":"UTC","FILE":"3902298","MEAN_MOTION_DDOT":"0.0000000000000","ARG_OF_PERICENTER":"91.0741","PERIAPSIS":"546.368","CENTER_NAME":"EARTH","TLE_LINE2":"2 48680  53.0531  92.9932 0001244  91.0741 269.0391 15.06394788107348","DECAY_DATE":null,"RCS_SIZE":"LARGE","RA_OF_ASC_NODE":"92.9932","APOAPSIS":"548.091","MEAN_ANOMALY":"269.0391","OBJECT_ID":"2021-044AU","LAUNCH_DATE":"2021-05-26","SEMIMAJOR_AXIS":"6925.365","BSTAR":"0.00005556300000","CLASSIFICATION_TYPE":"U","EPHEMERIS_TYPE":"0","OBJECT_TYPE":"PAYLOAD","MEAN_MOTION":"15.06394788","OBJECT_NAME":"STARLINK-2649","MEAN_ELEMENT_THEORY":"SGP4","EPOCH":"2023-05-06T07:54:13.730112","SITE":"AFETR","PERIOD":"95.592"},{"DECAY_DATE":null,"RCS_SIZE":"LARGE","RA_OF_ASC_NODE":"64.1334","APOAPSIS":"548.175","MEAN_ANOMALY":"249.1994","OBJECT_ID":"2021-044AV","LAUNCH_DATE":"2021-05-26","SEMIMAJOR_AXIS":"6925.375","BSTAR":"0.00142570000000","CLASSIFICATION_TYPE":"U","EPHEMERIS_TYPE":"0","OBJECT_TYPE":"PAYLOAD","OBJECT_NAME":"STARLINK-2725","MEAN_ELEMENT_THEORY":"SGP4","MEAN_MOTION":"15.06391210","EPOCH":"2023-05-06T03:06:19.948320","SITE":"AFETR","PERIOD":"95.593","ELEMENT_SET_NO":"999","GP_ID":"231351154","COUNTRY_CODE":"US","MEAN_MOTION_DOT":"0.00021013","NORAD_CAT_ID":"48681","ECCENTRICITY":"0.00013500","INCLINATION":"53.0550","REF_FRAME":"TEME","REV_AT_EPOCH":"10772","TLE_LINE1":"1 48681U 21044AV  23126.12939755  .00021013  00000-0  14257-2 0  9991","TIME_SYSTEM":"UTC","FILE":"3902298","MEAN_MOTION_DDOT":"0.0000000000000","ARG_OF_PERICENTER":"110.9140","PERIAPSIS":"546.306","CENTER_NAME":"EARTH","TLE_LINE2":"2 48681  53.0550  64.1334 0001350 110.9140 249.1994 15.06391210107726"},{"OBJECT_TYPE":"PAYLOAD","EPHEMERIS_TYPE":"0","CLASSIFICATION_TYPE":"U","EPOCH":"2023-05-06T01:26:47.832576","MEAN_MOTION":"15.06403272","MEAN_ELEMENT_THEORY":"SGP4","OBJECT_NAME":"STARLINK-2743","PERIOD":"95.592","SITE":"AFETR","APOAPSIS":"548.145","RA_OF_ASC_NODE":"54.3696","RCS_SIZE":"LARGE","DECAY_DATE":null,"OBJECT_ID":"2021-044AW","MEAN_ANOMALY":"265.5820","BSTAR":"0.00079195000000","LAUNCH_DATE":"2021-05-26","SEMIMAJOR_AXIS":"6925.339","TIME_SYSTEM":"UTC","TLE_LINE1":"1 48682U 21044AW  23126.06027584  .00011535  00000-0  79195-3 0  9994","REV_AT_EPOCH":"10785","REF_FRAME":"TEME","MEAN_MOTION_DDOT":"0.0000000000000","FILE":"3902298","PERIAPSIS":"546.262","ARG_OF_PERICENTER":"94.5324","TLE_LINE2":"2 48682  53.0539  54.3696 0001360  94.5324 265.5820 15.06403272107854","CENTER_NAME":"EARTH","ELEMENT_SET_NO":"999","COUNTRY_CODE":"US","GP_ID":"231351397","INCLINATION":"53.0539","ECCENTRICITY":"0.00013600","NORAD_CAT_ID":"48682","MEAN_MOTION_DOT":"0.00011535"},{"ELEMENT_SET_NO":"999","GP_ID":"231349652","COUNTRY_CODE":"US","MEAN_MOTION_DOT":"0.00019779","ECCENTRICITY":"0.00014620","NORAD_CAT_ID":"48683","INCLINATION":"53.0552","REF_FRAME":"TEME","REV_AT_EPOCH":"10789","TLE_LINE1":"1 48683U 21044AX  23126.28141750  .00019779  00000-0  13436-2 0  9994","TIME_SYSTEM":"UTC","FILE":"3902298","MEAN_MOTION_DDOT":"0.0000000000000","PERIAPSIS":"546.250","ARG_OF_PERICENTER":"107.6865","TLE_LINE2":"2 48683  53.0552  53.2216 0001462 107.6865 252.4283 15.06383964107892","CENTER_NAME":"EARTH","DECAY_DATE":null,"RCS_SIZE":"LARGE","RA_OF_ASC_NODE":"53.2216","APOAPSIS":"548.275","MEAN_ANOMALY":"252.4283","OBJECT_ID":"2021-044AX","SEMIMAJOR_AXIS":"6925.398","LAUNCH_DATE":"2021-05-26","BSTAR":"0.00134360000000","CLASSIFICATION_TYPE":"U","EPHEMERIS_TYPE":"0","OBJECT_TYPE":"PAYLOAD","MEAN_MOTION":"15.06383964","MEAN_ELEMENT_THEORY":"SGP4","OBJECT_NAME":"STARLINK-2756","EPOCH":"2023-05-06T06:45:14.472000","PERIOD":"95.593","SITE":"AFETR"}];
